[
    {
        "Altitude(m)": 624792.7562613494,
        "Argument of Periapsis(deg)": 0.0,
        "Eccentricity": 0.0,
        "Inclination(deg)": 60.0,
        "Latitude(deg)": -59.14703963901179,
        "Longitude(deg)": 159.0262424352811,
        "Mean Anomaly(deg)": 261.8182,
        "RAAN(deg)": 5.0,
        "Satellite Name": "Test1 38",
        "Satellite Number": 38,
        "Semi-Major Axis(m)": 6980739.136638005,
        "Time(s)": 0
    },
    {
        "Altitude(m)": 624842.1489637585,
        "Argument of Periapsis(deg)": 0.00010418945913296404,
        "Eccentricity": 0.0,
        "Inclination(deg)": 60.0,
        "Latitude(deg)": -59.28912513333659,
        "Longitude(deg)": 160.15574404145661,
        "Mean Anomaly(deg)": 262.43830614546187,
        "RAAN(deg)": 4.999579950860257,
        "Satellite Name": "Test1 38",
        "Satellite Number": 38,
        "Semi-Major Axis(m)": 6980739.136638005,
        "Time(s)": 10
    }
]